[{"OBJECT_NAME":"HULIANWANG DIGUI-117","OBJECT_ID":"2025-287D","EPOCH":"2026-03-09T22:11:26.675520","MEAN_MOTION":13.24414443,"ECCENTRICITY":9.426e-5,"INCLINATION":86.4981,"RA_OF_ASC_NODE":315.9294,"ARG_OF_PERICENTER":18.7932,"MEAN_ANOMALY":341.3237,"EPHEMERIS_TYPE":0,"CLASSIFICATION_TYPE":"U","NORAD_CAT_ID":66956,"ELEMENT_SET_NO":999,"REV_AT_EPOCH":1220,"BSTAR":0.00010423151,"MEAN_MOTION_DOT":5.9e-7,"MEAN_MOTION_DDOT":0},{"OBJECT_NAME":"COSMOS 1275 DEB","OBJECT_ID":"1981-053SP","EPOCH":"2026-03-08T07:20:06.266112","MEAN_MOTION":13.49719505,"ECCENTRICITY":0.01402744,"INCLINATION":83.0249,"RA_OF_ASC_NODE":255.6877,"ARG_OF_PERICENTER":133.6554,"MEAN_ANOMALY":39.1334,"EPHEMERIS_TYPE":0,"CLASSIFICATION_TYPE":"U","NORAD_CAT_ID":42175,"ELEMENT_SET_NO":999,"REV_AT_EPOCH":60569,"BSTAR":0.00023075366,"MEAN_MOTION_DOT":1.71e-6,"MEAN_MOTION_DDOT":0}]
